{
  "type": "FeatureCollection",
  "features": [
    {
      "type": "Feature",
      "properties": {
        "norad_id": 29850,
        "name": "FENGYUN 1C DEB",
        "group": "fengyun-1c-debris",
        "lat": 77.21447471376426,
        "lon": 137.86328729396374,
        "alt_km": 960.482764568872,
        "timestamp": "2025-12-18T21:31:51.273278+00:00",
        "meta_object_name": "FENGYUN 1C DEB",
        "meta_object_id": "1999-025EU",
        "meta_epoch": "2025-12-18T06:21:03.765888",
        "meta_mean_motion": 13.9987917,
        "meta_eccentricity": 0.01020317,
        "meta_inclination": 98.1244,
        "meta_ra_of_asc_node": 278.2903,
        "meta_arg_of_pericenter": 274.043,
        "meta_mean_anomaly": 240.2907,
        "meta_ephemeris_type": 0,
        "meta_classification_type": "U",
        "meta_norad_cat_id": 29850,
        "meta_element_set_no": 999,
        "meta_rev_at_epoch": 96097,
        "meta_bstar": 0.0010014454,
        "meta_mean_motion_dot": 1.5e-05,
        "meta_mean_motion_ddot": 0,
        "tle_line1": "1 29850U 99025EU  25352.26462692  .00001500  00000+0  10014-2 0  9996",
        "tle_line2": "2 29850  98.1244 278.2903 0102031 274.0430 240.2907 13.99879170960971"
      },
      "geometry": {
        "type": "Point",
        "coordinates": [
          137.86328729396374,
          77.21447471376426
        ]
      }
    },
    {
      "type": "Feature",
      "properties": {
        "norad_id": 29851,
        "name": "FENGYUN 1C DEB",
        "group": "fengyun-1c-debris",
        "lat": 46.5052933942423,
        "lon": 23.680458289943736,
        "alt_km": 1046.9936076462955,
        "timestamp": "2025-12-18T21:31:51.273288+00:00",
        "meta_object_name": "FENGYUN 1C DEB",
        "meta_object_id": "1999-025EV",
        "meta_epoch": "2025-12-18T02:28:49.247328",
        "meta_mean_motion": 13.8360365,
        "meta_eccentricity": 0.01422724,
        "meta_inclination": 99.5836,
        "meta_ra_of_asc_node": 33.1289,
        "meta_arg_of_pericenter": 213.3283,
        "meta_mean_anomaly": 202.9008,
        "meta_ephemeris_type": 0,
        "meta_classification_type": "U",
        "meta_norad_cat_id": 29851,
        "meta_element_set_no": 999,
        "meta_rev_at_epoch": 95441,
        "meta_bstar": 0.00032647477,
        "meta_mean_motion_dot": 3.43e-06,
        "meta_mean_motion_ddot": 0,
        "tle_line1": "1 29851U 99025EV  25352.10334777  .00000343  00000+0  32647-3 0  9993",
        "tle_line2": "2 29851  99.5836  33.1289 0142272 213.3283 202.9008 13.83603650954412"
      },
      "geometry": {
        "type": "Point",
        "coordinates": [
          23.680458289943736,
          46.5052933942423
        ]
      }
    },
    {
      "type": "Feature",
      "properties": {
        "norad_id": 29852,
        "name": "FENGYUN 1C DEB",
        "group": "fengyun-1c-debris",
        "lat": 37.71688791323722,
        "lon": -4.429938721833364,
        "alt_km": 873.0709329387073,
        "timestamp": "2025-12-18T21:31:51.273299+00:00",
        "meta_object_name": "FENGYUN 1C DEB",
        "meta_object_id": "1999-025EW",
        "meta_epoch": "2025-12-17T23:15:12.267936",
        "meta_mean_motion": 14.0709807,
        "meta_eccentricity": 0.01350858,
        "meta_inclination": 99.3707,
        "meta_ra_of_asc_node": 1.9451,
        "meta_arg_of_pericenter": 135.6096,
        "meta_mean_anomaly": 244.9017,
        "meta_ephemeris_type": 0,
        "meta_classification_type": "U",
        "meta_norad_cat_id": 29852,
        "meta_element_set_no": 999,
        "meta_rev_at_epoch": 96058,
        "meta_bstar": 0.0015960969,
        "meta_mean_motion_dot": 2.855e-05,
        "meta_mean_motion_ddot": 0,
        "tle_line1": "1 29852U 99025EW  25351.96889199  .00002855  00000+0  15961-2 0  9999",
        "tle_line2": "2 29852  99.3707   1.9451 0135085 135.6096 244.9017 14.07098070960586"
      },
      "geometry": {
        "type": "Point",
        "coordinates": [
          -4.429938721833364,
          37.71688791323722
        ]
      }
    },
    {
      "type": "Feature",
      "properties": {
        "norad_id": 29853,
        "name": "FENGYUN 1C DEB",
        "group": "fengyun-1c-debris",
        "lat": -77.57639011839692,
        "lon": -108.50116307452993,
        "alt_km": 854.2218801927038,
        "timestamp": "2025-12-18T21:31:51.273309+00:00",
        "meta_object_name": "FENGYUN 1C DEB",
        "meta_object_id": "1999-025EX",
        "meta_epoch": "2025-12-17T20:09:58.579776",
        "meta_mean_motion": 13.93815033,
        "meta_eccentricity": 0.01616716,
        "meta_inclination": 98.4579,
        "meta_ra_of_asc_node": 113.0178,
        "meta_arg_of_pericenter": 208.4652,
        "meta_mean_anomaly": 150.761,
        "meta_ephemeris_type": 0,
        "meta_classification_type": "U",
        "meta_norad_cat_id": 29853,
        "meta_element_set_no": 999,
        "meta_rev_at_epoch": 95740,
        "meta_bstar": 0.0012855806,
        "meta_mean_motion_dot": 1.849e-05,
        "meta_mean_motion_ddot": 0,
        "tle_line1": "1 29853U 99025EX  25351.84026134  .00001849  00000+0  12856-2 0  9991",
        "tle_line2": "2 29853  98.4579 113.0178 0161671 208.4652 150.7610 13.93815033957402"
      },
      "geometry": {
        "type": "Point",
        "coordinates": [
          -108.50116307452993,
          -77.57639011839692
        ]
      }
    },
    {
      "type": "Feature",
      "properties": {
        "norad_id": 29854,
        "name": "FENGYUN 1C DEB",
        "group": "fengyun-1c-debris",
        "lat": -78.18491437973655,
        "lon": -157.56736124475972,
        "alt_km": 1006.1817762966011,
        "timestamp": "2025-12-18T21:31:51.273319+00:00",
        "meta_object_name": "FENGYUN 1C DEB",
        "meta_object_id": "1999-025EY",
        "meta_epoch": "2025-12-18T06:52:12.056160",
        "meta_mean_motion": 13.83345422,
        "meta_eccentricity": 0.01471524,
        "meta_inclination": 98.9273,
        "meta_ra_of_asc_node": 153.1416,
        "meta_arg_of_pericenter": 35.9088,
        "meta_mean_anomaly": 82.873,
        "meta_ephemeris_type": 0,
        "meta_classification_type": "U",
        "meta_norad_cat_id": 29854,
        "meta_element_set_no": 999,
        "meta_rev_at_epoch": 95420,
        "meta_bstar": 0.00026114985,
        "meta_mean_motion_dot": 2.71e-06,
        "meta_mean_motion_ddot": 0,
        "tle_line1": "1 29854U 99025EY  25352.28625065  .00000271  00000+0  26115-3 0  9991",
        "tle_line2": "2 29854  98.9273 153.1416 0147152  35.9088  82.8730 13.83345422954205"
      },
      "geometry": {
        "type": "Point",
        "coordinates": [
          -157.56736124475972,
          -78.18491437973655
        ]
      }
    },
    {
      "type": "Feature",
      "properties": {
        "norad_id": 29855,
        "name": "FENGYUN 1C DEB",
        "group": "fengyun-1c-debris",
        "lat": 49.53947756731604,
        "lon": 123.67882366809046,
        "alt_km": 906.3728807591388,
        "timestamp": "2025-12-18T21:31:51.273330+00:00",
        "meta_object_name": "FENGYUN 1C DEB",
        "meta_object_id": "1999-025EZ",
        "meta_epoch": "2025-12-17T19:21:50.150880",
        "meta_mean_motion": 14.01619701,
        "meta_eccentricity": 0.01840193,
        "meta_inclination": 98.1808,
        "meta_ra_of_asc_node": 292.9901,
        "meta_arg_of_pericenter": 31.9597,
        "meta_mean_anomaly": 357.3172,
        "meta_ephemeris_type": 0,
        "meta_classification_type": "U",
        "meta_norad_cat_id": 29855,
        "meta_element_set_no": 999,
        "meta_rev_at_epoch": 95783,
        "meta_bstar": 0.0018508628,
        "meta_mean_motion_dot": 3.214e-05,
        "meta_mean_motion_ddot": 0,
        "tle_line1": "1 29855U 99025EZ  25351.80683045  .00003214  00000+0  18509-2 0  9998",
        "tle_line2": "2 29855  98.1808 292.9901 0184019  31.9597 357.3172 14.01619701957834"
      },
      "geometry": {
        "type": "Point",
        "coordinates": [
          123.67882366809046,
          49.53947756731604
        ]
      }
    },
    {
      "type": "Feature",
      "properties": {
        "norad_id": 29856,
        "name": "FENGYUN 1C DEB",
        "group": "fengyun-1c-debris",
        "lat": -24.113888844127853,
        "lon": 90.9605023040974,
        "alt_km": 631.5603542929575,
        "timestamp": "2025-12-18T21:31:51.273340+00:00",
        "meta_object_name": "FENGYUN 1C DEB",
        "meta_object_id": "1999-025FA",
        "meta_epoch": "2025-12-17T18:13:29.313120",
        "meta_mean_motion": 14.47878418,
        "meta_eccentricity": 0.02623739,
        "meta_inclination": 98.689,
        "meta_ra_of_asc_node": 85.8651,
        "meta_arg_of_pericenter": 282.6807,
        "meta_mean_anomaly": 243.5396,
        "meta_ephemeris_type": 0,
        "meta_classification_type": "U",
        "meta_norad_cat_id": 29856,
        "meta_element_set_no": 999,
        "meta_rev_at_epoch": 96447,
        "meta_bstar": 0.0019682622,
        "meta_mean_motion_dot": 0.00011229,
        "meta_mean_motion_ddot": 0,
        "tle_line1": "1 29856U 99025FA  25351.75936705  .00011229  00000+0  19683-2 0  9996",
        "tle_line2": "2 29856  98.6890  85.8651 0262373 282.6807 243.5396 14.47878418964475"
      },
      "geometry": {
        "type": "Point",
        "coordinates": [
          90.9605023040974,
          -24.113888844127853
        ]
      }
    }
  ]
}